CORVUS BC1              
1 42847U 17042Y   26068.93334460  .00004853  00000+0  33801-3 0  9990
2 42847  97.3986 234.9925 0013283  71.1953 289.0714 15.05817892472152
STARLINK-3238           
1 49734U 21115L   26068.53529932  .00002316  00000+0  16366-3 0  9993
2 49734  53.2191 149.8428 0001574 105.1106 255.0061 15.08822245235519
